{
  "norad_id": 25994,
  "name": "TERRA",
  "history": [
    {
      "epoch": "2026-03-28T21:53:59.532576Z",
      "apogee_km": 692.3610759006015,
      "perigee_km": 687.3090308362944,
      "latitude_deg": 7.442941569549188,
      "longitude_deg": 166.82523655792278,
      "height_km": 690.9437590017801,
      "semi_major_axis_km": 7067.972053368448,
      "eccentricity": 0.00035739,
      "inclination_deg": 97.9552,
      "raan_deg": 140.609,
      "arg_perigee_deg": 111.4332,
      "mean_anomaly_deg": 60.9426,
      "mean_motion_rev_day": 14.61034686
    },
    {
      "epoch": "2026-03-29T04:00:15.432192Z",
      "apogee_km": 692.3623539426208,
      "perigee_km": 687.3059273885892,
      "latitude_deg": 68.0292944507176,
      "longitude_deg": -125.94042796643839,
      "height_km": 699.7048979313039,
      "semi_major_axis_km": 7067.971140665605,
      "eccentricity": 0.0003577,
      "inclination_deg": 97.9552,
      "raan_deg": 140.8535,
      "arg_perigee_deg": 110.9538,
      "mean_anomaly_deg": 318.4372,
      "mean_motion_rev_day": 14.61034969
    },
    {
      "epoch": "2026-03-30T04:45:41.916384Z",
      "apogee_km": 692.3689784233075,
      "perigee_km": 687.2885246411051,
      "latitude_deg": 81.87830866339067,
      "longitude_deg": 139.71556637053115,
      "height_km": 700.8953574989464,
      "semi_major_axis_km": 7067.965751532206,
      "eccentricity": 0.0003594,
      "inclination_deg": 97.9549,
      "raan_deg": 141.8453,
      "arg_perigee_deg": 108.9557,
      "mean_anomaly_deg": 342.9004,
      "mean_motion_rev_day": 14.6103664
    },
    {
      "epoch": "2026-03-30T06:09:53.904960Z",
      "apogee_km": 692.3720009215394,
      "perigee_km": 687.2851860838955,
      "latitude_deg": 38.81612983880532,
      "longitude_deg": -144.64411703104906,
      "height_km": 694.4147457238246,
      "semi_major_axis_km": 7067.965593502718,
      "eccentricity": 0.00035985,
      "inclination_deg": 97.9549,
      "raan_deg": 141.9015,
      "arg_perigee_deg": 108.8315,
      "mean_anomaly_deg": 290.3882,
      "mean_motion_rev_day": 14.61036689
    },
    {
      "epoch": "2026-03-30T14:54:10.747008Z",
      "apogee_km": 692.3751145468077,
      "perigee_km": 687.2792537293271,
      "latitude_deg": 26.670236820401477,
      "longitude_deg": -85.30014255681354,
      "height_km": 691.337209457548,
      "semi_major_axis_km": 7067.964184138067,
      "eccentricity": 0.00036049,
      "inclination_deg": 97.9549,
      "raan_deg": 142.2515,
      "arg_perigee_deg": 108.1205,
      "mean_anomaly_deg": 44.9382,
      "mean_motion_rev_day": 14.61037126
    },
    {
      "epoch": "2026-03-30T21:34:01.334784Z",
      "apogee_km": 692.3763890619248,
      "perigee_km": 687.2760054595174,
      "latitude_deg": 7.167918815322051,
      "longitude_deg": 171.73069670561677,
      "height_km": 691.1004575645366,
      "semi_major_axis_km": 7067.96319726072,
      "eccentricity": 0.00036081,
      "inclination_deg": 97.9548,
      "raan_deg": 142.5185,
      "arg_perigee_deg": 107.578,
      "mean_anomaly_deg": 65.0721,
      "mean_motion_rev_day": 14.61037432
    },
    {
      "epoch": "2026-03-31T20:11:31.611840Z",
      "apogee_km": 692.3808864919602,
      "perigee_km": 687.2636839694542,
      "latitude_deg": 81.86298117577469,
      "longitude_deg": -65.08771848332387,
      "height_km": 700.8773249898775,
      "semi_major_axis_km": 7067.959285230707,
      "eccentricity": 0.000362,
      "inclination_deg": 97.9546,
      "raan_deg": 143.4247,
      "arg_perigee_deg": 105.7304,
      "mean_anomaly_deg": 342.3696,
      "mean_motion_rev_day": 14.61038645
    }
  ]
}